[{"OBJECT_NAME":"LEMUR-2-AMANDA-SVANTE","OBJECT_ID":"2021-034B","EPOCH":"2026-03-09T18:37:58.823328","MEAN_MOTION":15.28469003,"ECCENTRICITY":0.00027027,"INCLINATION":97.5829,"RA_OF_ASC_NODE":144.8625,"ARG_OF_PERICENTER":205.4721,"MEAN_ANOMALY":154.6385,"EPHEMERIS_TYPE":0,"CLASSIFICATION_TYPE":"U","NORAD_CAT_ID":48269,"ELEMENT_SET_NO":999,"REV_AT_EPOCH":26584,"BSTAR":0.0011134246,"MEAN_MOTION_DOT":0.00030872,"MEAN_MOTION_DDOT":0},{"OBJECT_NAME":"STARLINK-35835","OBJECT_ID":"2025-268N","EPOCH":"2026-03-09T03:53:51.352224","MEAN_MOTION":15.27575703,"ECCENTRICITY":0.00013269,"INCLINATION":43.003,"RA_OF_ASC_NODE":349.6479,"ARG_OF_PERICENTER":299.2565,"MEAN_ANOMALY":60.8154,"EPHEMERIS_TYPE":0,"CLASSIFICATION_TYPE":"U","NORAD_CAT_ID":66569,"ELEMENT_SET_NO":999,"REV_AT_EPOCH":1788,"BSTAR":0.0011639381,"MEAN_MOTION_DOT":0.00031901,"MEAN_MOTION_DDOT":0}]
